[{"OBJECT_NAME":"ONEWEB-0033","OBJECT_ID":"2020-008M","EPOCH":"2026-04-15T06:53:16.120032","MEAN_MOTION":13.10373194,"ECCENTRICITY":0.0002162,"INCLINATION":87.8833,"RA_OF_ASC_NODE":48.7946,"ARG_OF_PERICENTER":66.0725,"MEAN_ANOMALY":294.0629,"EPHEMERIS_TYPE":0,"CLASSIFICATION_TYPE":"U","NORAD_CAT_ID":45142,"ELEMENT_SET_NO":999,"REV_AT_EPOCH":29997,"BSTAR":0.001916,"MEAN_MOTION_DOT":6.82e-06,"MEAN_MOTION_DDOT":0.0},{"OBJECT_NAME":"ONEWEB-0035","OBJECT_ID":"2020-008N","EPOCH":"2026-04-15T05:47:30.092064","MEAN_MOTION":13.10369811,"ECCENTRICITY":0.0001971,"INCLINATION":87.8826,"RA_OF_ASC_NODE":48.8019,"ARG_OF_PERICENTER":77.5107,"MEAN_ANOMALY":282.6241,"EPHEMERIS_TYPE":0,"CLASSIFICATION_TYPE":"U","NORAD_CAT_ID":45143,"ELEMENT_SET_NO":999,"REV_AT_EPOCH":29969,"BSTAR":-0.0012641,"MEAN_MOTION_DOT":-4.29e-06,"MEAN_MOTION_DDOT":0.0},{"OBJECT_NAME":"ONEWEB-0036","OBJECT_ID":"2020-008P","EPOCH":"2026-04-15T06:09:46.973088","MEAN_MOTION":13.09819869,"ECCENTRICITY":0.0001761,"INCLINATION":87.8853,"RA_OF_ASC_NODE":48.7837,"ARG_OF_PERICENTER":86.4999,"MEAN_ANOMALY":273.633,"EPHEMERIS_TYPE":0,"CLASSIFICATION_TYPE":"U","NORAD_CAT_ID":45144,"ELEMENT_SET_NO":999,"REV_AT_EPOCH":30012,"BSTAR":-0.0018199000000000002,"MEAN_MOTION_DOT":-6.18e-06,"MEAN_MOTION_DDOT":0.0},{"OBJECT_NAME":"ONEWEB-0038","OBJECT_ID":"2020-008Q","EPOCH":"2026-04-15T05:22:37.762752","MEAN_MOTION":13.11418466,"ECCENTRICITY":0.000355,"INCLINATION":87.8942,"RA_OF_ASC_NODE":33.5848,"ARG_OF_PERICENTER":82.4136,"MEAN_ANOMALY":277.7395,"EPHEMERIS_TYPE":0,"CLASSIFICATION_TYPE":"U","NORAD_CAT_ID":45145,"ELEMENT_SET_NO":999,"REV_AT_EPOCH":30207,"BSTAR":-0.00055962,"MEAN_MOTION_DOT":-1.86e-06,"MEAN_MOTION_DDOT":0.0},{"OBJECT_NAME":"ONEWEB-0039","OBJECT_ID":"2020-008R","EPOCH":"2026-04-15T06:58:02.220672","MEAN_MOTION":13.10374118,"ECCENTRICITY":0.0001953,"INCLINATION":87.8842,"RA_OF_ASC_NODE":48.7814,"ARG_OF_PERICENTER":95.1721,"MEAN_ANOMALY":264.9629,"EPHEMERIS_TYPE":0,"CLASSIFICATION_TYPE":"U","NORAD_CAT_ID":45146,"ELEMENT_SET_NO":999,"REV_AT_EPOCH":29992,"BSTAR":0.0018437999999999998,"MEAN_MOTION_DOT":6.56e-06,"MEAN_MOTION_DDOT":0.0},{"OBJECT_NAME":"ONEWEB-0040","OBJECT_ID":"2020-008S","EPOCH":"2026-04-15T06:48:28.551456","MEAN_MOTION":13.10375321,"ECCENTRICITY":0.0001956,"INCLINATION":87.8838,"RA_OF_ASC_NODE":48.796,"ARG_OF_PERICENTER":80.1701,"MEAN_ANOMALY":279.9647,"EPHEMERIS_TYPE":0,"CLASSIFICATION_TYPE":"U","NORAD_CAT_ID":45147,"ELEMENT_SET_NO":999,"REV_AT_EPOCH":29962,"BSTAR":0.0015172,"MEAN_MOTION_DOT":5.42e-06,"MEAN_MOTION_DDOT":0.0},{"OBJECT_NAME":"ONEWEB-0043","OBJECT_ID":"2020-008U","EPOCH":"2026-04-15T06:50:51.318816","MEAN_MOTION":13.1037605,"ECCENTRICITY":0.0001946,"INCLINATION":87.8841,"RA_OF_ASC_NODE":48.7803,"ARG_OF_PERICENTER":96.8974,"MEAN_ANOMALY":263.2374,"EPHEMERIS_TYPE":0,"CLASSIFICATION_TYPE":"U","NORAD_CAT_ID":45149,"ELEMENT_SET_NO":999,"REV_AT_EPOCH":29994,"BSTAR":0.0017259,"MEAN_MOTION_DOT":6.15e-06,"MEAN_MOTION_DDOT":0.0},{"OBJECT_NAME":"ONEWEB-0044","OBJECT_ID":"2020-008V","EPOCH":"2026-04-15T02:01:38.040384","MEAN_MOTION":13.10369513,"ECCENTRICITY":0.0002015,"INCLINATION":87.8838,"RA_OF_ASC_NODE":48.8178,"ARG_OF_PERICENTER":85.6659,"MEAN_ANOMALY":274.4699,"EPHEMERIS_TYPE":0,"CLASSIFICATION_TYPE":"U","NORAD_CAT_ID":45150,"ELEMENT_SET_NO":999,"REV_AT_EPOCH":30021,"BSTAR":-0.0006328000000000001,"MEAN_MOTION_DOT":-2.08e-06,"MEAN_MOTION_DDOT":0.0},{"OBJECT_NAME":"ONEWEB-0045","OBJECT_ID":"2020-008W","EPOCH":"2026-04-15T05:15:05.902848","MEAN_MOTION":13.11418143,"ECCENTRICITY":0.0001933,"INCLINATION":87.8929,"RA_OF_ASC_NODE":33.5716,"ARG_OF_PERICENTER":81.693,"MEAN_ANOMALY":278.4417,"EPHEMERIS_TYPE":0,"CLASSIFICATION_TYPE":"U","NORAD_CAT_ID":45151,"ELEMENT_SET_NO":999,"REV_AT_EPOCH":30215,"BSTAR":-0.0010138,"MEAN_MOTION_DOT":-3.47e-06,"MEAN_MOTION_DDOT":0.0},{"OBJECT_NAME":"ONEWEB-0047","OBJECT_ID":"2020-008X","EPOCH":"2026-04-15T05:31:58.327680","MEAN_MOTION":13.10368895,"ECCENTRICITY":0.0002043,"INCLINATION":87.8836,"RA_OF_ASC_NODE":48.7895,"ARG_OF_PERICENTER":76.8533,"MEAN_ANOMALY":283.2823,"EPHEMERIS_TYPE":0,"CLASSIFICATION_TYPE":"U","NORAD_CAT_ID":45152,"ELEMENT_SET_NO":999,"REV_AT_EPOCH":29995,"BSTAR":0.00051274,"MEAN_MOTION_DOT":1.92e-06,"MEAN_MOTION_DDOT":0.0},{"OBJECT_NAME":"ONEWEB-0048","OBJECT_ID":"2020-008Y","EPOCH":"2026-04-15T05:24:48.854016","MEAN_MOTION":13.10370548,"ECCENTRICITY":0.000198,"INCLINATION":87.8831,"RA_OF_ASC_NODE":48.8158,"ARG_OF_PERICENTER":78.791,"MEAN_ANOMALY":281.344,"EPHEMERIS_TYPE":0,"CLASSIFICATION_TYPE":"U","NORAD_CAT_ID":45153,"ELEMENT_SET_NO":999,"REV_AT_EPOCH":29956,"BSTAR":0.0012104,"MEAN_MOTION_DOT":4.35e-06,"MEAN_MOTION_DDOT":0.0},{"OBJECT_NAME":"ONEWEB-0049","OBJECT_ID":"2020-008Z","EPOCH":"2026-04-15T05:29:23.606880","MEAN_MOTION":13.10369268,"ECCENTRICITY":0.0001471,"INCLINATION":87.8832,"RA_OF_ASC_NODE":48.8033,"ARG_OF_PERICENTER":84.7208,"MEAN_ANOMALY":275.4088,"EPHEMERIS_TYPE":0,"CLASSIFICATION_TYPE":"U","NORAD_CAT_ID":45154,"ELEMENT_SET_NO":999,"REV_AT_EPOCH":29978,"BSTAR":0.00078876,"MEAN_MOTION_DOT":2.88e-06,"MEAN_MOTION_DDOT":0.0},{"OBJECT_NAME":"ONEWEB-0051","OBJECT_ID":"2020-008AA","EPOCH":"2026-04-15T05:12:38.675520","MEAN_MOTION":13.11416744,"ECCENTRICITY":0.0001929,"INCLINATION":87.8925,"RA_OF_ASC_NODE":33.5837,"ARG_OF_PERICENTER":78.9875,"MEAN_ANOMALY":281.147,"EPHEMERIS_TYPE":0,"CLASSIFICATION_TYPE":"U","NORAD_CAT_ID":45155,"ELEMENT_SET_NO":999,"REV_AT_EPOCH":30283,"BSTAR":-0.0010701,"MEAN_MOTION_DOT":-3.67e-06,"MEAN_MOTION_DDOT":0.0},{"OBJECT_NAME":"ONEWEB-0052","OBJECT_ID":"2020-008AB","EPOCH":"2026-04-15T05:59:26.550240","MEAN_MOTION":13.10371251,"ECCENTRICITY":0.0001449,"INCLINATION":87.8847,"RA_OF_ASC_NODE":48.7843,"ARG_OF_PERICENTER":86.5985,"MEAN_ANOMALY":273.5308,"EPHEMERIS_TYPE":0,"CLASSIFICATION_TYPE":"U","NORAD_CAT_ID":45156,"ELEMENT_SET_NO":999,"REV_AT_EPOCH":29969,"BSTAR":-0.0019337,"MEAN_MOTION_DOT":-6.62e-06,"MEAN_MOTION_DDOT":0.0},{"OBJECT_NAME":"ONEWEB-0053","OBJECT_ID":"2020-008AC","EPOCH":"2026-04-15T06:46:05.141280","MEAN_MOTION":13.10374666,"ECCENTRICITY":0.000176,"INCLINATION":87.8836,"RA_OF_ASC_NODE":48.8015,"ARG_OF_PERICENTER":95.1051,"MEAN_ANOMALY":265.0278,"EPHEMERIS_TYPE":0,"CLASSIFICATION_TYPE":"U","NORAD_CAT_ID":45157,"ELEMENT_SET_NO":999,"REV_AT_EPOCH":29967,"BSTAR":0.0015551999999999999,"MEAN_MOTION_DOT":5.56e-06,"MEAN_MOTION_DDOT":0.0},{"OBJECT_NAME":"ONEWEB-0054","OBJECT_ID":"2020-008AD","EPOCH":"2026-04-15T05:46:17.462496","MEAN_MOTION":13.10368647,"ECCENTRICITY":0.000181,"INCLINATION":87.8835,"RA_OF_ASC_NODE":48.7874,"ARG_OF_PERICENTER":79.2571,"MEAN_ANOMALY":280.876,"EPHEMERIS_TYPE":0,"CLASSIFICATION_TYPE":"U","NORAD_CAT_ID":45158,"ELEMENT_SET_NO":999,"REV_AT_EPOCH":29978,"BSTAR":-0.00096676,"MEAN_MOTION_DOT":-3.25e-06,"MEAN_MOTION_DDOT":0.0}]