ONEWEB-0033             
1 45142U 20008M   26105.28699213  .00000682  00000+0  19160-2 0  9994
2 45142  87.8833  48.7946 0002162  66.0725 294.0629 13.10373194299970
ONEWEB-0035             
1 45143U 20008N   26105.24132051 -.00000429  00000+0 -12641-2 0  9991
2 45143  87.8826  48.8019 0001971  77.5107 282.6241 13.10369811299696
ONEWEB-0036             
1 45144U 20008P   26105.25679367 -.00000618  00000+0 -18199-2 0  9993
2 45144  87.8853  48.7837 0001761  86.4999 273.6330 13.09819869300120
ONEWEB-0038             
1 45145U 20008Q   26105.22404818 -.00000186  00000+0 -55962-3 0  9998
2 45145  87.8942  33.5848 0003550  82.4136 277.7395 13.11418466302074
ONEWEB-0039             
1 45146U 20008R   26105.29030348  .00000656  00000+0  18438-2 0  9995
2 45146  87.8842  48.7814 0001953  95.1721 264.9629 13.10374118299922
ONEWEB-0040             
1 45147U 20008S   26105.28366379  .00000542  00000+0  15172-2 0  9997
2 45147  87.8838  48.7960 0001956  80.1701 279.9647 13.10375321299625
ONEWEB-0043             
1 45149U 20008U   26105.28531619  .00000615  00000+0  17259-2 0  9999
2 45149  87.8841  48.7803 0001946  96.8974 263.2374 13.10376050299940
ONEWEB-0044             
1 45150U 20008V   26105.08446806 -.00000208  00000+0 -63280-3 0  9998
2 45150  87.8838  48.8178 0002015  85.6659 274.4699 13.10369513300211
ONEWEB-0045             
1 45151U 20008W   26105.21881832 -.00000347  00000+0 -10138-2 0  9993
2 45151  87.8929  33.5716 0001933  81.6930 278.4417 13.11418143302150
ONEWEB-0047             
1 45152U 20008X   26105.23053620  .00000192  00000+0  51274-3 0  9995
2 45152  87.8836  48.7895 0002043  76.8533 283.2823 13.10368895299957
ONEWEB-0048             
1 45153U 20008Y   26105.22556544  .00000435  00000+0  12104-2 0  9996
2 45153  87.8831  48.8158 0001980  78.7910 281.3440 13.10370548299564
ONEWEB-0049             
1 45154U 20008Z   26105.22874545  .00000288  00000+0  78876-3 0  9996
2 45154  87.8832  48.8033 0001471  84.7208 275.4088 13.10369268299783
ONEWEB-0051             
1 45155U 20008AA  26105.21711430 -.00000367  00000+0 -10701-2 0  9991
2 45155  87.8925  33.5837 0001929  78.9875 281.1470 13.11416744302836
ONEWEB-0052             
1 45156U 20008AB  26105.24961285 -.00000662  00000+0 -19337-2 0  9992
2 45156  87.8847  48.7843 0001449  86.5985 273.5308 13.10371251299695
ONEWEB-0053             
1 45157U 20008AC  26105.28200395  .00000556  00000+0  15552-2 0  9990
2 45157  87.8836  48.8015 0001760  95.1051 265.0278 13.10374666299675
ONEWEB-0054             
1 45158U 20008AD  26105.24047989 -.00000325  00000+0 -96676-3 0  9998
2 45158  87.8835  48.7874 0001810  79.2571 280.8760 13.10368647299788
